STARLINK-2418           
1 48097U 21027F   26068.52940928 -.00001555  00000+0 -85535-4 0  9998
2 48097  53.0551 152.3405 0001167  85.6837 274.4285 15.06398346272672
MATS                    
1 54227U 22147A   26068.98542601  .00004118  00000+0  29671-3 0  9994
2 54227  97.6844  71.0610 0012971 166.9988 193.1575 15.04668680182840
